[{"OBJECT_NAME":"STARLINK-31606","OBJECT_ID":"2024-076H","EPOCH":"2026-03-09T22:00:01.999584","MEAN_MOTION":15.27570598,"ECCENTRICITY":0.00014715,"INCLINATION":43.0033,"RA_OF_ASC_NODE":7.3104,"ARG_OF_PERICENTER":258.6921,"MEAN_ANOMALY":47.9748,"EPHEMERIS_TYPE":0,"CLASSIFICATION_TYPE":"U","NORAD_CAT_ID":59571,"ELEMENT_SET_NO":999,"REV_AT_EPOCH":585,"BSTAR":0.00010492345,"MEAN_MOTION_DOT":2.625e-5,"MEAN_MOTION_DDOT":0},{"OBJECT_NAME":"TROLL","OBJECT_ID":"2025-009BB","EPOCH":"2026-03-09T05:24:19.835712","MEAN_MOTION":15.28164315,"ECCENTRICITY":0.00018165,"INCLINATION":97.3932,"RA_OF_ASC_NODE":150.7169,"ARG_OF_PERICENTER":59.185,"MEAN_ANOMALY":300.9568,"EPHEMERIS_TYPE":0,"CLASSIFICATION_TYPE":"U","NORAD_CAT_ID":62658,"ELEMENT_SET_NO":999,"REV_AT_EPOCH":11817,"BSTAR":0.00048220305,"MEAN_MOTION_DOT":0.00013174,"MEAN_MOTION_DDOT":0}]
